OBJECT_NAME,OBJECT_ID,EPOCH,MEAN_MOTION,ECCENTRICITY,INCLINATION,RA_OF_ASC_NODE,ARG_OF_PERICENTER,MEAN_ANOMALY,EPHEMERIS_TYPE,CLASSIFICATION_TYPE,NORAD_CAT_ID,ELEMENT_SET_NO,REV_AT_EPOCH,BSTAR,MEAN_MOTION_DOT,MEAN_MOTION_DDOT
SAR-LUPE 2,2007-030A,2026-07-22T06:43:35.100768,15.54670477,.00053635,98.1057,312.2059,212.0327,148.0599,0,U,31797,999,6238,.67892601E-3,.45076E-3,0
SAPPHIRE,2013-009C,2026-07-22T07:09:15.687936,14.35248938,.00119856,98.4280,21.9234,139.9181,220.2892,0,U,39088,999,70161,.43643381E-4,.82E-6,0
PRAETORIAN SDA_602,2025-203A,2026-07-21T19:08:34.021536,13.83888777,.00071425,81.3051,338.7252,102.6307,257.5648,0,U,65565,999,4348,.72090721E-4,.92E-6,0
PRAETORIAN SDA_603,2025-203B,2026-07-21T16:20:34.792800,13.83966351,.00109528,81.3060,338.7519,96.4199,263.8205,0,U,65566,999,4347,.91608098E-4,.114E-5,0
PRAETORIAN SDA_604,2025-203C,2026-07-21T19:05:00.003552,13.83051108,.00066718,81.3074,339.1150,106.6224,253.5665,0,U,65567,999,4346,.8989749E-4,.11E-5,0
PRAETORIAN SDA_605,2025-203D,2026-07-21T14:37:35.713632,13.83201087,.00093731,81.3038,338.9235,98.0149,262.2071,0,U,65568,999,4345,.86484241E-4,.107E-5,0
PRAETORIAN SDA_606,2025-203E,2026-07-22T07:37:52.726368,13.83200571,.00072272,81.3075,338.5093,99.9263,260.2710,0,U,65569,999,4354,.48378527E-4,.65E-6,0
PRAETORIAN SDA_607,2025-203F,2026-07-21T19:11:00.634560,13.83759184,.00100315,81.3060,338.6018,98.8302,261.3990,0,U,65570,999,4349,.13360564E-3,.16E-5,0
PRAETORIAN SDA_608,2025-203G,2026-07-22T05:10:07.470336,13.83820485,.00071478,81.3028,338.3776,104.1537,256.0415,0,U,65571,999,4353,.86159265E-4,.107E-5,0
PRAETORIAN SDA_609,2025-203H,2026-07-21T15:10:13.075392,13.84211906,.00080418,81.3069,338.8941,100.5865,259.6198,0,U,65572,999,4346,.85143711E-4,.107E-5,0
PRAETORIAN SDA_610,2025-203J,2026-07-21T07:56:31.369632,13.83529130,.00078823,81.3029,339.1621,105.5007,254.7021,0,U,65573,999,4341,.85026148E-4,.106E-5,0
PRAETORIAN SDA_611,2025-203K,2026-07-21T18:35:40.331040,13.83311626,.00067921,81.3030,338.9364,109.0642,251.1250,0,U,65574,999,4346,.35947177E-3,.407E-5,0
PRAETORIAN SDA_612,2025-203L,2026-07-21T19:02:35.282688,13.85041956,.0010415,81.3045,338.4205,98.9678,261.2659,0,U,65575,999,4350,.1299871E-3,.159E-5,0
PRAETORIAN SDA_613,2025-203M,2026-07-21T19:04:56.957088,13.82768516,.00068225,81.3020,338.9413,100.2012,259.9914,0,U,65576,999,4346,.71653475E-4,.9E-6,0
PRAETORIAN SDA_614,2025-203N,2026-07-21T08:32:09.201984,13.84779082,.00082807,81.3034,338.9126,98.8712,261.3383,0,U,65577,999,4344,.46486049E-4,.64E-6,0
PRAETORIAN SDA_615,2025-203P,2026-07-21T20:19:27.782976,13.84439389,.00101973,81.3044,338.4431,97.6856,262.5459,0,U,65578,999,4350,.16002014E-3,.191E-5,0
PRAETORIAN SDA_616,2025-203Q,2026-07-21T18:36:01.222560,13.83270874,.00066797,81.3080,339.1039,107.7362,252.4523,0,U,65579,999,4346,.18049347E-3,.21E-5,0
PRAETORIAN SDA_617,2025-203R,2026-07-22T07:20:32.739072,13.83152807,.00085478,81.3059,338.4417,96.9060,263.3069,0,U,65580,999,4354,.48707545E-4,.65E-6,0
PRAETORIAN SDA_618,2025-203S,2026-07-21T19:33:54.811872,13.84226272,.0010885,81.3045,338.4063,100.6014,259.6369,0,U,65581,999,4350,.1407592E-3,.169E-5,0
PRAETORIAN SDA_619,2025-203T,2026-07-21T19:00:57.231648,13.83806648,.00093597,81.3066,338.7620,98.8025,261.4192,0,U,65582,999,4411,.10702052E-3,.131E-5,0
PRAETORIAN SDA_620,2025-203U,2026-07-21T14:43:06.815712,13.83209156,.00086889,81.3050,338.9643,96.8847,263.3298,0,U,65583,999,4345,.11525664E-3,.138E-5,0
PRAETORIAN SDA_621,2025-203V,2026-07-21T19:03:36.691488,13.83804754,.00085165,81.3041,338.6907,93.4826,266.7304,0,U,65584,999,4348,.80488943E-4,.101E-5,0
PRAETORIAN SDA_601,2025-203W,2026-07-22T05:09:07.594272,13.83171585,.00067298,81.3060,338.6384,108.8355,251.3531,0,U,65585,999,4352,.40524147E-3,.456E-5,0
VICTUS HAZE PUMA,2026-142A,2026-07-22T11:33:34.192800,15.21156921,.0026557,97.4452,100.7015,240.1351,119.7245,0,U,69646,999,503,.18544E-3,.4097E-4,0
