SAR-LUPE 2              
1 31797U 07030A   26203.28026737  .00045076  00000+0  67893-3 0  9992
2 31797  98.1057 312.2059 0005363 212.0327 148.0599 15.54670477 62386
SAPPHIRE                
1 39088U 13009C   26203.29809824  .00000082  00000+0  43643-4 0  9999
2 39088  98.4280  21.9234 0011985 139.9181 220.2892 14.35248938701615
PRAETORIAN SDA_602      
1 65565U 25203A   26202.79761599  .00000092  00000+0  72091-4 0  9997
2 65565  81.3051 338.7252 0007142 102.6307 257.5648 13.83888777 43486
PRAETORIAN SDA_603      
1 65566U 25203B   26202.68095825  .00000114  00000+0  91608-4 0  9998
2 65566  81.3060 338.7519 0010952  96.4199 263.8205 13.83966351 43478
PRAETORIAN SDA_604      
1 65567U 25203C   26202.79513893  .00000110  00000+0  89897-4 0  9994
2 65567  81.3074 339.1150 0006671 106.6224 253.5665 13.83051108 43466
PRAETORIAN SDA_605      
1 65568U 25203D   26202.60944113  .00000107  00000+0  86484-4 0  9993
2 65568  81.3038 338.9235 0009373  98.0149 262.2071 13.83201087 43450
PRAETORIAN SDA_606      
1 65569U 25203E   26203.31797137  .00000065  00000+0  48379-4 0  9999
2 65569  81.3075 338.5093 0007227  99.9263 260.2710 13.83200571 43548
PRAETORIAN SDA_607      
1 65570U 25203F   26202.79931290  .00000160  00000+0  13361-3 0  9990
2 65570  81.3060 338.6018 0010031  98.8302 261.3990 13.83759184 43496
PRAETORIAN SDA_608      
1 65571U 25203G   26203.21536424  .00000107  00000+0  86159-4 0  9996
2 65571  81.3028 338.3776 0007147 104.1537 256.0415 13.83820485 43535
PRAETORIAN SDA_609      
1 65572U 25203H   26202.63209578  .00000107  00000+0  85144-4 0  9992
2 65572  81.3069 338.8941 0008041 100.5865 259.6198 13.84211906 43460
PRAETORIAN SDA_610      
1 65573U 25203J   26202.33091863  .00000106  00000+0  85026-4 0  9994
2 65573  81.3029 339.1621 0007882 105.5007 254.7021 13.83529130 43417
PRAETORIAN SDA_611      
1 65574U 25203K   26202.77477235  .00000407  00000+0  35947-3 0  9994
2 65574  81.3030 338.9364 0006792 109.0642 251.1250 13.83311626 43463
PRAETORIAN SDA_612      
1 65575U 25203L   26202.79346392  .00000159  00000+0  12999-3 0  9992
2 65575  81.3045 338.4205 0010415  98.9678 261.2659 13.85041956 43509
PRAETORIAN SDA_613      
1 65576U 25203M   26202.79510367  .00000090  00000+0  71653-4 0  9995
2 65576  81.3020 338.9413 0006822 100.2012 259.9914 13.82768516 43463
PRAETORIAN SDA_614      
1 65577U 25203N   26202.35566206  .00000064  00000+0  46486-4 0  9998
2 65577  81.3034 338.9126 0008280  98.8712 261.3383 13.84779082 43446
PRAETORIAN SDA_615      
1 65578U 25203P   26202.84684934  .00000191  00000+0  16002-3 0  9993
2 65578  81.3044 338.4431 0010197  97.6856 262.5459 13.84439389 43505
PRAETORIAN SDA_616      
1 65579U 25203Q   26202.77501415  .00000210  00000+0  18049-3 0  9993
2 65579  81.3080 339.1039 0006679 107.7362 252.4523 13.83270874 43469
PRAETORIAN SDA_617      
1 65580U 25203R   26203.30593448  .00000065  00000+0  48708-4 0  9996
2 65580  81.3059 338.4417 0008547  96.9060 263.3069 13.83152807 43549
PRAETORIAN SDA_618      
1 65581U 25203S   26202.81521773  .00000169  00000+0  14076-3 0  9999
2 65581  81.3045 338.4063 0010885 100.6014 259.6369 13.84226272 43508
PRAETORIAN SDA_619      
1 65582U 25203T   26202.79232907  .00000131  00000+0  10702-3 0  9996
2 65582  81.3066 338.7620 0009359  98.8025 261.4192 13.83806648 44111
PRAETORIAN SDA_620      
1 65583U 25203U   26202.61327333  .00000138  00000+0  11526-3 0  9998
2 65583  81.3050 338.9643 0008688  96.8847 263.3298 13.83209156 43451
PRAETORIAN SDA_621      
1 65584U 25203V   26202.79417467  .00000101  00000+0  80489-4 0  9991
2 65584  81.3041 338.6907 0008516  93.4826 266.7304 13.83804754 43485
PRAETORIAN SDA_601      
1 65585U 25203W   26203.21467123  .00000456  00000+0  40524-3 0  9992
2 65585  81.3060 338.6384 0006729 108.8355 251.3531 13.83171585 43524
VICTUS HAZE PUMA        
1 69646U 26142A   26203.48164575  .00004097  00000+0  18544-3 0  9993
2 69646  97.4452 100.7015 0026557 240.1351 119.7245 15.21156921  5039
